{
  "norad_id": 45697,
  "name": "STARLINK-1351",
  "history": [
    {
      "epoch": "2026-03-28T22:42:56.811168Z",
      "apogee_km": 402.5632414157062,
      "perigee_km": 396.93109078904126,
      "latitude_deg": -2.6230679041175317e-05,
      "longitude_deg": 121.54902726393208,
      "height_km": 402.7821711185132,
      "semi_major_axis_km": 6777.8841661023735,
      "eccentricity": 0.00041548,
      "inclination_deg": 53.0499,
      "raan_deg": 288.6454,
      "arg_perigee_deg": 220.7113,
      "mean_anomaly_deg": 139.3587,
      "mean_motion_rev_day": 15.55827875
    },
    {
      "epoch": "2026-03-29T00:15:26.946720Z",
      "apogee_km": 402.53300231695994,
      "perigee_km": 396.9114458764934,
      "latitude_deg": -4.8088620465094875e-05,
      "longitude_deg": 98.04893055158787,
      "height_km": 402.75159607062244,
      "semi_major_axis_km": 6777.859224096726,
      "eccentricity": 0.0004147,
      "inclination_deg": 53.0493,
      "raan_deg": 288.3342,
      "arg_perigee_deg": 220.7599,
      "mean_anomaly_deg": 139.3101,
      "mean_motion_rev_day": 15.55836463
    },
    {
      "epoch": "2026-03-30T00:55:22.575072Z",
      "apogee_km": 401.9800535142276,
      "perigee_km": 396.2356607733118,
      "latitude_deg": -3.54314576570867e-05,
      "longitude_deg": 82.0784816341398,
      "height_km": 402.11289868804823,
      "semi_major_axis_km": 6777.244857143769,
      "eccentricity": 0.0004238,
      "inclination_deg": 53.0494,
      "raan_deg": 283.3585,
      "arg_perigee_deg": 222.8866,
      "mean_anomaly_deg": 137.1814,
      "mean_motion_rev_day": 15.56048026
    },
    {
      "epoch": "2026-03-30T00:55:22.575936Z",
      "apogee_km": 401.97998574177745,
      "perigee_km": 396.23572854576014,
      "latitude_deg": -3.6057460999004355e-05,
      "longitude_deg": 82.07847755603113,
      "height_km": 402.1128490319906,
      "semi_major_axis_km": 6777.244857143769,
      "eccentricity": 0.00042379,
      "inclination_deg": 53.0494,
      "raan_deg": 283.3585,
      "arg_perigee_deg": 222.8866,
      "mean_anomaly_deg": 137.1814,
      "mean_motion_rev_day": 15.56048026
    },
    {
      "epoch": "2026-03-30T14:47:44.954592Z",
      "apogee_km": 401.5304363474079,
      "perigee_km": 395.9693229739587,
      "latitude_deg": 1.4670436419980702e-05,
      "longitude_deg": -129.38436728925652,
      "height_km": 401.4998542918381,
      "semi_major_axis_km": 6776.886879660683,
      "eccentricity": 0.0004103,
      "inclination_deg": 53.0485,
      "raan_deg": 280.5586,
      "arg_perigee_deg": 228.3112,
      "mean_anomaly_deg": 131.7548,
      "mean_motion_rev_day": 15.56171321
    },
    {
      "epoch": "2026-03-30T22:30:08.169120Z",
      "apogee_km": 401.29030788041655,
      "perigee_km": 395.5683108201265,
      "latitude_deg": 1.303417560008461e-05,
      "longitude_deg": 113.14741206457929,
      "height_km": 401.158436077791,
      "semi_major_axis_km": 6776.566309350271,
      "eccentricity": 0.00042219,
      "inclination_deg": 53.0493,
      "raan_deg": 279.0036,
      "arg_perigee_deg": 230.2825,
      "mean_anomaly_deg": 129.7814,
      "mean_motion_rev_day": 15.56281746
    },
    {
      "epoch": "2026-03-31T22:00:03.999744Z",
      "apogee_km": 400.49399882402304,
      "perigee_km": 394.92425330839615,
      "latitude_deg": 53.19757493481845,
      "longitude_deg": -156.1779474400872,
      "height_km": 406.67986471559834,
      "semi_major_axis_km": 6775.84612606621,
      "eccentricity": 0.000411,
      "inclination_deg": 53.0491,
      "raan_deg": 274.2608,
      "arg_perigee_deg": 240.8348,
      "mean_anomaly_deg": 208.5062,
      "mean_motion_rev_day": 15.56529871
    },
    {
      "epoch": "2026-04-01T20:43:55.285248Z",
      "apogee_km": 399.8233797979501,
      "perigee_km": 394.0374722161414,
      "latitude_deg": -1.3232553529756388e-05,
      "longitude_deg": 128.46728920469394,
      "height_km": 398.96984022345305,
      "semi_major_axis_km": 6775.0674260070455,
      "eccentricity": 0.000427,
      "inclination_deg": 53.0486,
      "raan_deg": 269.6684,
      "arg_perigee_deg": 246.8388,
      "mean_anomaly_deg": 113.2173,
      "mean_motion_rev_day": 15.56798231
    },
    {
      "epoch": "2026-04-02T22:00:01.999584Z",
      "apogee_km": 399.4114070623782,
      "perigee_km": 393.33589042237327,
      "latitude_deg": 27.679867450009354,
      "longitude_deg": -99.80473492726792,
      "height_km": 398.76283060174853,
      "semi_major_axis_km": 6774.510648742375,
      "eccentricity": 0.00044841,
      "inclination_deg": 53.0484,
      "raan_deg": 264.5653,
      "arg_perigee_deg": 254.931,
      "mean_anomaly_deg": 249.6897,
      "mean_motion_rev_day": 15.56990158
    },
    {
      "epoch": "2026-04-03T20:00:01.999008Z",
      "apogee_km": 398.57391922097395,
      "perigee_km": 392.51147589166067,
      "latitude_deg": -47.15970436364033,
      "longitude_deg": 1.7182630667874468,
      "height_km": 408.7232255281903,
      "semi_major_axis_km": 6773.6796975563175,
      "eccentricity": 0.0004475,
      "inclination_deg": 53.049,
      "raan_deg": 260.1188,
      "arg_perigee_deg": 262.6124,
      "mean_anomaly_deg": 343.5773,
      "mean_motion_rev_day": 15.57276669
    },
    {
      "epoch": "2026-04-04T04:11:19.418784Z",
      "apogee_km": 398.26068527175994,
      "perigee_km": 392.15221321549325,
      "latitude_deg": -3.7639886344381045e-05,
      "longitude_deg": 3.1330892777359165,
      "height_km": 396.49008259893344,
      "semi_major_axis_km": 6773.343449243626,
      "eccentricity": 0.00045092,
      "inclination_deg": 53.0488,
      "raan_deg": 258.4623,
      "arg_perigee_deg": 262.8252,
      "mean_anomaly_deg": 97.2246,
      "mean_motion_rev_day": 15.57392632
    },
    {
      "epoch": "2026-04-05T14:04:02.571168Z",
      "apogee_km": 397.3166404578178,
      "perigee_km": 390.7606326675741,
      "latitude_deg": 3.2500668905038385e-05,
      "longitude_deg": -153.2900085476331,
      "height_km": 394.737809293543,
      "semi_major_axis_km": 6772.175636562696,
      "eccentricity": 0.00048404,
      "inclination_deg": 53.0486,
      "raan_deg": 251.6103,
      "arg_perigee_deg": 273.5564,
      "mean_anomaly_deg": 86.4894,
      "mean_motion_rev_day": 15.57795491
    },
    {
      "epoch": "2026-04-05T22:00:03.000096Z",
      "apogee_km": 397.24608798839654,
      "perigee_km": 390.3116461405225,
      "latitude_deg": 41.04522322495789,
      "longitude_deg": 126.41936058503853,
      "height_km": 400.07725194265157,
      "semi_major_axis_km": 6771.915867064459,
      "eccentricity": 0.000512,
      "inclination_deg": 53.0478,
      "raan_deg": 250.0073,
      "arg_perigee_deg": 278.7762,
      "mean_anomaly_deg": 136.218,
      "mean_motion_rev_day": 15.57885127
    },
    {
      "epoch": "2026-04-06T06:00:02.000160Z",
      "apogee_km": 397.06843454627597,
      "perigee_km": 390.0472704554095,
      "latitude_deg": 40.707807670367444,
      "longitude_deg": 103.77430564579576,
      "height_km": 400.3888287339097,
      "semi_major_axis_km": 6771.694852500843,
      "eccentricity": 0.00051842,
      "inclination_deg": 53.0481,
      "raan_deg": 248.3868,
      "arg_perigee_deg": 277.8561,
      "mean_anomaly_deg": 207.6899,
      "mean_motion_rev_day": 15.57961397
    },
    {
      "epoch": "2026-04-07T14:00:01.999872Z",
      "apogee_km": 396.07813734190313,
      "perigee_km": 388.8169562388521,
      "latitude_deg": 37.281626560564014,
      "longitude_deg": -129.24111106855875,
      "height_km": 397.34595124818867,
      "semi_major_axis_km": 6770.584546790377,
      "eccentricity": 0.00053623,
      "inclination_deg": 53.0475,
      "raan_deg": 241.9111,
      "arg_perigee_deg": 287.756,
      "mean_anomaly_deg": 121.2918,
      "mean_motion_rev_day": 15.58344647
    },
    {
      "epoch": "2026-04-07T20:00:00.999360Z",
      "apogee_km": 396.1274163610442,
      "perigee_km": 388.7123024886032,
      "latitude_deg": 9.852073028359987,
      "longitude_deg": 112.05328827392717,
      "height_km": 392.03450139191114,
      "semi_major_axis_km": 6770.556859424823,
      "eccentricity": 0.0005476,
      "inclination_deg": 53.0472,
      "raan_deg": 240.6975,
      "arg_perigee_deg": 290.7195,
      "mean_anomaly_deg": 81.6053,
      "mean_motion_rev_day": 15.58354206
    },
    {
      "epoch": "2026-04-08T14:00:04.999680Z",
      "apogee_km": 395.8569982035315,
      "perigee_km": 388.37126693127357,
      "latitude_deg": -52.610471042150465,
      "longitude_deg": 88.37065860440906,
      "height_km": 407.10479047688267,
      "semi_major_axis_km": 6770.251132567402,
      "eccentricity": 0.00055284,
      "inclination_deg": 53.047,
      "raan_deg": 237.0515,
      "arg_perigee_deg": 292.3413,
      "mean_anomaly_deg": 330.5047,
      "mean_motion_rev_day": 15.58459764
    },
    {
      "epoch": "2026-04-09T13:30:08.763552Z",
      "apogee_km": 395.6369230729315,
      "perigee_km": 388.0274776917022,
      "latitude_deg": 7.619975548334154e-05,
      "longitude_deg": -168.05336671372626,
      "height_km": 390.9889135594291,
      "semi_major_axis_km": 6769.969200382317,
      "eccentricity": 0.000562,
      "inclination_deg": 53.0481,
      "raan_deg": 232.2921,
      "arg_perigee_deg": 297.3189,
      "mean_anomaly_deg": 62.7251,
      "mean_motion_rev_day": 15.58557117
    },
    {
      "epoch": "2026-04-10T12:35:11.944320Z",
      "apogee_km": 395.7284438887955,
      "perigee_km": 387.2853440242534,
      "latitude_deg": 5.3832128470157725e-05,
      "longitude_deg": -159.93687426831244,
      "height_km": 390.0352193394416,
      "semi_major_axis_km": 6769.643893956524,
      "eccentricity": 0.0006236,
      "inclination_deg": 53.0475,
      "raan_deg": 227.6199,
      "arg_perigee_deg": 304.2287,
      "mean_anomaly_deg": 55.8134,
      "mean_motion_rev_day": 15.5866946
    }
  ]
}